STARLINK-2228_new
1 18576C 21041Z   21326.18577384 -.00003186  00000-0 -22310-3 0  3260
2 18576  53.0576 307.6439 0002371  41.9180 260.5643 15.04760936    14
STARLINK-2228_old
1 28576C 21041Z   21325.14220558 -.00001860  00000-0 -13015-3 0  3251
2 28576  53.0579 312.3165 0002361  41.2156   4.9141 15.04777758    14
